IRIDIUM 171             
1 43929U 19002H   23311.47220386  .00000871  00000+0  30377-3 0  9999
2 43929  86.4022  31.9341 0002209  94.8336 265.3112 14.34222329252403
IRIDIUM 170             
1 43930U 19002J   23311.59770713  .00002810  00000+0  44159-3 0  9996
2 43930  86.6143  31.7351 0002270  98.0457 262.1017 14.72252386259109
IRIDIUM 167             
1 43931U 19002K   23311.60540136  .00000704  00000+0  24425-3 0  9997
2 43931  86.4011  31.6918 0002229  96.0460 264.0989 14.34221751252423
IRIDIUM 181             
1 56726U 23068S   23311.60091607  .00001062  00000+0  30779-3 0  9991
2 56726  86.8617  74.6279 0003030 109.7354 250.4175 14.43578812 25020
IRIDIUM 177             
1 56727U 23068T   23311.34260476  .00005064  00000+0  66241-3 0  9994
2 56727  86.1984  61.1435 0002246  90.9630 269.1848 14.80254740 25411
IRIDIUM 174             
1 56728U 23068U   23311.33720113  .00004995  00000+0  65332-3 0  9995
2 56728  86.1989  61.2316 0001949  92.3987 267.7457 14.80258619 25415
IRIDIUM 178             
1 56729U 23068V   23311.60221599  .00004110  00000+0  53727-3 0  9994
2 56729  86.5773  68.0208 0002006  89.0467 271.0985 14.80237714 25458
IRIDIUM 179             
1 56730U 23068W   23311.59679331  .00003988  00000+0  52114-3 0  9996
2 56730  86.6784  69.3544 0002167  92.8411 267.3058 14.80246686 25456
